start=new Date('2023-05-15T00:00:00.000Z').valueOf();
sats=[{"FILE":"3908034","TLE_LINE2":"2 51775  53.2174 282.3018 0001147  77.8270 282.2851 15.08835467 68589","REF_FRAME":"TEME","MEAN_ANOMALY":"282.2851","RA_OF_ASC_NODE":"282.3018","INCLINATION":"53.2174","MEAN_ELEMENT_THEORY":"SGP4","CENTER_NAME":"EARTH","DECAY_DATE":null,"APOAPSIS":"540.553","MEAN_MOTION_DDOT":"0.0000000000000","REV_AT_EPOCH":"6858","PERIOD":"95.438","EPOCH":"2023-05-14T20:06:40.781664","LAUNCH_DATE":"2022-02-25","TIME_SYSTEM":"UTC","SITE":"AFWTR","ARG_OF_PERICENTER":"77.8270","COUNTRY_CODE":"US","EPHEMERIS_TYPE":"0","ELEMENT_SET_NO":"999","BSTAR":"0.00018296000000","SEMIMAJOR_AXIS":"6917.894","NORAD_CAT_ID":"51775","MEAN_MOTION_DOT":"0.00002625","PERIAPSIS":"538.966","TLE_LINE1":"1 51775U 22017H   23134.83797201  .00002625  00000-0  18296-3 0  9991","MEAN_MOTION":"15.08835467","OBJECT_TYPE":"PAYLOAD","OBJECT_ID":"2022-017H","ECCENTRICITY":"0.00011470","OBJECT_NAME":"STARLINK-3620","RCS_SIZE":"LARGE","CLASSIFICATION_TYPE":"U","GP_ID":"231858389"},{"TLE_LINE1":"1 51776U 22017J   23134.69077477  .00001701  00000-0  12492-3 0  9998","PERIAPSIS":"539.109","MEAN_MOTION":"15.08838075","NORAD_CAT_ID":"51776","SEMIMAJOR_AXIS":"6917.886","MEAN_MOTION_DOT":"0.00001701","OBJECT_NAME":"STARLINK-3608","GP_ID":"231858392","CLASSIFICATION_TYPE":"U","RCS_SIZE":"LARGE","OBJECT_TYPE":"PAYLOAD","ECCENTRICITY":"0.00009290","OBJECT_ID":"2022-017J","COUNTRY_CODE":"US","EPHEMERIS_TYPE":"0","BSTAR":"0.00012492000000","ELEMENT_SET_NO":"999","SITE":"AFWTR","TIME_SYSTEM":"UTC","LAUNCH_DATE":"2022-02-25","ARG_OF_PERICENTER":"85.3547","PERIOD":"95.438","EPOCH":"2023-05-14T16:34:42.940128","INCLINATION":"53.2156","RA_OF_ASC_NODE":"282.9634","MEAN_ELEMENT_THEORY":"SGP4","TLE_LINE2":"2 51776  53.2156 282.9634 0000929  85.3547 274.7552 15.08838075 68568","FILE":"3908034","REF_FRAME":"TEME","MEAN_ANOMALY":"274.7552","REV_AT_EPOCH":"6856","DECAY_DATE":null,"CENTER_NAME":"EARTH","MEAN_MOTION_DDOT":"0.0000000000000","APOAPSIS":"540.394"},{"COUNTRY_CODE":"US","EPHEMERIS_TYPE":"0","BSTAR":"0.00005512500000","ELEMENT_SET_NO":"999","PERIAPSIS":"539.145","TLE_LINE1":"1 51777U 22017K   23134.82788575  .00000590  00000-0  55125-4 0  9998","MEAN_MOTION":"15.08840787","SEMIMAJOR_AXIS":"6917.878","NORAD_CAT_ID":"51777","MEAN_MOTION_DOT":"0.00000590","OBJECT_NAME":"STARLINK-3625","RCS_SIZE":"LARGE","CLASSIFICATION_TYPE":"U","GP_ID":"231858312","OBJECT_TYPE":"PAYLOAD","OBJECT_ID":"2022-017K","ECCENTRICITY":"0.00008650","RA_OF_ASC_NODE":"282.3209","INCLINATION":"53.2164","MEAN_ELEMENT_THEORY":"SGP4","TLE_LINE2":"2 51777  53.2164 282.3209 0000865  87.6587 272.4504 15.08840787 68596","FILE":"3908034","REF_FRAME":"TEME","MEAN_ANOMALY":"272.4504","REV_AT_EPOCH":"6859","CENTER_NAME":"EARTH","DECAY_DATE":null,"APOAPSIS":"540.341","MEAN_MOTION_DDOT":"0.0000000000000","TIME_SYSTEM":"UTC","LAUNCH_DATE":"2022-02-25","SITE":"AFWTR","ARG_OF_PERICENTER":"87.6587","PERIOD":"95.438","EPOCH":"2023-05-14T19:52:09.328800"},{"EPOCH":"2023-05-14T18:21:59.981184","PERIOD":"95.437","ARG_OF_PERICENTER":"93.6800","SITE":"AFWTR","TIME_SYSTEM":"UTC","LAUNCH_DATE":"2022-02-25","MEAN_ANOMALY":"266.4304","REF_FRAME":"TEME","TLE_LINE2":"2 51778  53.2159 272.5079 0000974  93.6800 266.4304 15.08842078 67071","FILE":"3908005","MEAN_ELEMENT_THEORY":"SGP4","INCLINATION":"53.2159","RA_OF_ASC_NODE":"272.5079","MEAN_MOTION_DDOT":"0.0000000000000","APOAPSIS":"540.413","DECAY_DATE":null,"CENTER_NAME":"EARTH","REV_AT_EPOCH":"6707","MEAN_MOTION_DOT":"0.00001627","NORAD_CAT_ID":"51778","SEMIMAJOR_AXIS":"6917.874","MEAN_MOTION":"15.08842078","TLE_LINE1":"1 51778U 22017L   23134.76527756  .00001627  00000-0  12025-3 0  9997","PERIAPSIS":"539.065","ECCENTRICITY":"0.00009740","OBJECT_ID":"2022-017L","OBJECT_TYPE":"PAYLOAD","GP_ID":"231855160","CLASSIFICATION_TYPE":"U","RCS_SIZE":"LARGE","OBJECT_NAME":"STARLINK-3615","EPHEMERIS_TYPE":"0","COUNTRY_CODE":"US","ELEMENT_SET_NO":"999","BSTAR":"0.00012025000000"},{"REV_AT_EPOCH":"6858","CENTER_NAME":"EARTH","DECAY_DATE":null,"APOAPSIS":"540.567","MEAN_MOTION_DDOT":"0.0000000000000","RA_OF_ASC_NODE":"282.3827","INCLINATION":"53.2164","MEAN_ELEMENT_THEORY":"SGP4","TLE_LINE2":"2 51779  53.2164 282.3827 0001190 106.0250 254.0874 15.08840481 68585","FILE":"3908034","REF_FRAME":"TEME","MEAN_ANOMALY":"254.0874","TIME_SYSTEM":"UTC","LAUNCH_DATE":"2022-02-25","SITE":"AFWTR","ARG_OF_PERICENTER":"106.0250","PERIOD":"95.438","EPOCH":"2023-05-14T19:40:11.160768","BSTAR":"0.00002967300000","ELEMENT_SET_NO":"999","COUNTRY_CODE":"US","EPHEMERIS_TYPE":"0","OBJECT_NAME":"STARLINK-3611","RCS_SIZE":"LARGE","CLASSIFICATION_TYPE":"U","GP_ID":"231858305","OBJECT_TYPE":"PAYLOAD","OBJECT_ID":"2022-017M","ECCENTRICITY":"0.00011900","PERIAPSIS":"538.921","TLE_LINE1":"1 51779U 22017M   23134.81957362  .00000184  00000-0  29673-4 0  9999","MEAN_MOTION":"15.08840481","SEMIMAJOR_AXIS":"6917.879","NORAD_CAT_ID":"51779","MEAN_MOTION_DOT":"0.00000184"},{"RCS_SIZE":"LARGE","GP_ID":"231858391","CLASSIFICATION_TYPE":"U","OBJECT_NAME":"STARLINK-3617","OBJECT_ID":"2022-017N","ECCENTRICITY":"0.00011080","OBJECT_TYPE":"PAYLOAD","MEAN_MOTION":"15.08844919","PERIAPSIS":"538.964","TLE_LINE1":"1 51780U 22017N   23134.81221302  .00000870  00000-0  72731-4 0  9994","MEAN_MOTION_DOT":"0.00000870","SEMIMAJOR_AXIS":"6917.865","NORAD_CAT_ID":"51780","BSTAR":"0.00007273100000","ELEMENT_SET_NO":"999","EPHEMERIS_TYPE":"0","COUNTRY_CODE":"US","ARG_OF_PERICENTER":"82.5505","TIME_SYSTEM":"UTC","LAUNCH_DATE":"2022-02-25","SITE":"AFWTR","EPOCH":"2023-05-14T19:29:35.204928","PERIOD":"95.437","REV_AT_EPOCH":"6863","APOAPSIS":"540.497","MEAN_MOTION_DDOT":"0.0000000000000","CENTER_NAME":"EARTH","DECAY_DATE":null,"MEAN_ELEMENT_THEORY":"SGP4","RA_OF_ASC_NODE":"282.4465","INCLINATION":"53.2174","REF_FRAME":"TEME","MEAN_ANOMALY":"277.5613","FILE":"3908034","TLE_LINE2":"2 51780  53.2174 282.4465 0001108  82.5505 277.5613 15.08844919 68634"},{"OBJECT_TYPE":"PAYLOAD","OBJECT_ID":"2022-017P","ECCENTRICITY":"0.00012300","OBJECT_NAME":"STARLINK-3580","RCS_SIZE":"LARGE","GP_ID":"231854910","CLASSIFICATION_TYPE":"U","SEMIMAJOR_AXIS":"6917.877","NORAD_CAT_ID":"51781","MEAN_MOTION_DOT":"-0.00000196","PERIAPSIS":"538.891","TLE_LINE1":"1 51781U 22017P   23134.81589391 -.00000196  00000-0  57507-5 0  9997","MEAN_MOTION":"15.08841221","ELEMENT_SET_NO":"999","BSTAR":"0.00000575070000","COUNTRY_CODE":"US","EPHEMERIS_TYPE":"0","PERIOD":"95.437","EPOCH":"2023-05-14T19:34:53.233824","TIME_SYSTEM":"UTC","LAUNCH_DATE":"2022-02-25","SITE":"AFWTR","ARG_OF_PERICENTER":"99.4351","CENTER_NAME":"EARTH","DECAY_DATE":null,"APOAPSIS":"540.593","MEAN_MOTION_DDOT":"0.0000000000000","REV_AT_EPOCH":"6694","TLE_LINE2":"2 51781  53.2180 282.4006 0001230  99.4351 260.6781 15.08841221 66949","FILE":"3908005","REF_FRAME":"TEME","MEAN_ANOMALY":"260.6781","RA_OF_ASC_NODE":"282.4006","INCLINATION":"53.2180","MEAN_ELEMENT_THEORY":"SGP4"},{"EPOCH":"2023-05-14T20:01:25.901184","PERIOD":"95.438","ARG_OF_PERICENTER":"104.3131","SITE":"AFWTR","TIME_SYSTEM":"UTC","LAUNCH_DATE":"2022-02-25","MEAN_MOTION_DDOT":"0.0000000000000","APOAPSIS":"540.727","DECAY_DATE":null,"CENTER_NAME":"EARTH","REV_AT_EPOCH":"6671","REF_FRAME":"TEME","MEAN_ANOMALY":"255.8019","FILE":"3908005","TLE_LINE2":"2 51782  53.2168 292.3297 0001423 104.3131 255.8019 15.08840768 66714","MEAN_ELEMENT_THEORY":"SGP4","INCLINATION":"53.2168","RA_OF_ASC_NODE":"292.3297","ECCENTRICITY":"0.00014230","OBJECT_ID":"2022-017Q","OBJECT_TYPE":"PAYLOAD","GP_ID":"231854660","CLASSIFICATION_TYPE":"U","RCS_SIZE":"LARGE","OBJECT_NAME":"STARLINK-3616","MEAN_MOTION_DOT":"0.00002088","NORAD_CAT_ID":"51782","SEMIMAJOR_AXIS":"6917.878","MEAN_MOTION":"15.08840768","TLE_LINE1":"1 51782U 22017Q   23134.83432756  .00002088  00000-0  14921-3 0  9994","PERIAPSIS":"538.759","ELEMENT_SET_NO":"999","BSTAR":"0.00014921000000","EPHEMERIS_TYPE":"0","COUNTRY_CODE":"US"},{"OBJECT_TYPE":"PAYLOAD","ECCENTRICITY":"0.00011680","OBJECT_ID":"2022-017R","OBJECT_NAME":"STARLINK-3628","GP_ID":"231853409","CLASSIFICATION_TYPE":"U","RCS_SIZE":"LARGE","NORAD_CAT_ID":"51783","SEMIMAJOR_AXIS":"6917.896","MEAN_MOTION_DOT":"0.00000336","TLE_LINE1":"1 51783U 22017R   23134.61814051  .00000336  00000-0  39209-4 0  9994","PERIAPSIS":"538.953","MEAN_MOTION":"15.08834988","ELEMENT_SET_NO":"999","BSTAR":"0.00003920900000","COUNTRY_CODE":"US","EPHEMERIS_TYPE":"0","PERIOD":"95.438","EPOCH":"2023-05-14T14:50:07.340064","SITE":"AFWTR","TIME_SYSTEM":"UTC","LAUNCH_DATE":"2022-02-25","ARG_OF_PERICENTER":"67.9049","DECAY_DATE":null,"CENTER_NAME":"EARTH","MEAN_MOTION_DDOT":"0.0000000000000","APOAPSIS":"540.569","REV_AT_EPOCH":"6691","TLE_LINE2":"2 51783  53.2177 283.3422 0001168  67.9049 292.2067 15.08834988 66910","FILE":"3908005","REF_FRAME":"TEME","MEAN_ANOMALY":"292.2067","INCLINATION":"53.2177","RA_OF_ASC_NODE":"283.3422","MEAN_ELEMENT_THEORY":"SGP4"},{"ARG_OF_PERICENTER":"86.0106","LAUNCH_DATE":"2022-02-25","TIME_SYSTEM":"UTC","SITE":"AFWTR","EPOCH":"2023-05-14T19:54:45.571968","PERIOD":"95.438","REV_AT_EPOCH":"6845","APOAPSIS":"540.611","MEAN_MOTION_DDOT":"0.0000000000000","CENTER_NAME":"EARTH","DECAY_DATE":null,"MEAN_ELEMENT_THEORY":"SGP4","RA_OF_ASC_NODE":"292.3395","INCLINATION":"53.2169","REF_FRAME":"TEME","MEAN_ANOMALY":"274.1029","FILE":"3908035","TLE_LINE2":"2 51784  53.2169 292.3395 0001246  86.0106 274.1029 15.08838710 68459","RCS_SIZE":"LARGE","GP_ID":"231858327","CLASSIFICATION_TYPE":"U","OBJECT_NAME":"STARLINK-3632","OBJECT_ID":"2022-017S","ECCENTRICITY":"0.00012460","OBJECT_TYPE":"PAYLOAD","MEAN_MOTION":"15.08838710","PERIAPSIS":"538.887","TLE_LINE1":"1 51784U 22017S   23134.82969412 -.00000219  00000-0  43414-5 0  9995","MEAN_MOTION_DOT":"-0.00000219","SEMIMAJOR_AXIS":"6917.884","NORAD_CAT_ID":"51784","BSTAR":"0.00000434140000","ELEMENT_SET_NO":"999","EPHEMERIS_TYPE":"0","COUNTRY_CODE":"US"}];
